[{"OBJECT_NAME":"OTB-3-GAZELLE","OBJECT_ID":"2022-127A","EPOCH":"2026-04-27T05:18:58.429440","MEAN_MOTION":14.42655504,"ECCENTRICITY":0.00128558,"INCLINATION":98.3937,"RA_OF_ASC_NODE":109.7063,"ARG_OF_PERICENTER":348.1171,"MEAN_ANOMALY":11.9714,"EPHEMERIS_TYPE":0,"CLASSIFICATION_TYPE":"U","NORAD_CAT_ID":54023,"ELEMENT_SET_NO":999,"REV_AT_EPOCH":18701,"BSTAR":6.5979866e-5,"MEAN_MOTION_DOT":1.76e-6,"MEAN_MOTION_DDOT":0},{"OBJECT_NAME":"ASO-S","OBJECT_ID":"2022-129A","EPOCH":"2026-04-27T06:16:17.106240","MEAN_MOTION":14.52037099,"ECCENTRICITY":0.0013065,"INCLINATION":98.2764,"RA_OF_ASC_NODE":123.0699,"ARG_OF_PERICENTER":247.1714,"MEAN_ANOMALY":112.8102,"EPHEMERIS_TYPE":0,"CLASSIFICATION_TYPE":"U","NORAD_CAT_ID":54029,"ELEMENT_SET_NO":999,"REV_AT_EPOCH":18803,"BSTAR":6.781462e-5,"MEAN_MOTION_DOT":2.3e-6,"MEAN_MOTION_DDOT":0},{"OBJECT_NAME":"HJ-2E","OBJECT_ID":"2022-132A","EPOCH":"2026-04-27T06:20:12.514272","MEAN_MOTION":15.21557571,"ECCENTRICITY":0.00206901,"INCLINATION":97.3815,"RA_OF_ASC_NODE":122.5874,"ARG_OF_PERICENTER":182.3675,"MEAN_ANOMALY":177.7466,"EPHEMERIS_TYPE":0,"CLASSIFICATION_TYPE":"U","NORAD_CAT_ID":54035,"ELEMENT_SET_NO":999,"REV_AT_EPOCH":19667,"BSTAR":0.00038117496,"MEAN_MOTION_DOT":8.574e-5,"MEAN_MOTION_DDOT":0},{"OBJECT_NAME":"COSMOS 2561","OBJECT_ID":"2022-137A","EPOCH":"2026-04-27T04:40:00.474816","MEAN_MOTION":15.50400522,"ECCENTRICITY":0.0009168,"INCLINATION":96.9244,"RA_OF_ASC_NODE":178.1324,"ARG_OF_PERICENTER":203.2235,"MEAN_ANOMALY":156.8604,"EPHEMERIS_TYPE":0,"CLASSIFICATION_TYPE":"U","NORAD_CAT_ID":54109,"ELEMENT_SET_NO":999,"REV_AT_EPOCH":19844,"BSTAR":0.00027354,"MEAN_MOTION_DOT":0.00015493,"MEAN_MOTION_DDOT":0},{"OBJECT_NAME":"GONETS-M 23","OBJECT_ID":"2022-139A","EPOCH":"2026-04-27T07:23:51.584352","MEAN_MOTION":12.42888485,"ECCENTRICITY":0.00213815,"INCLINATION":82.5112,"RA_OF_ASC_NODE":19.9107,"ARG_OF_PERICENTER":335.6203,"MEAN_ANOMALY":24.3864,"EPHEMERIS_TYPE":0,"CLASSIFICATION_TYPE":"U","NORAD_CAT_ID":54150,"ELEMENT_SET_NO":999,"REV_AT_EPOCH":15932,"BSTAR":7.001012e-6,"MEAN_MOTION_DOT":1.1e-7,"MEAN_MOTION_DDOT":0},{"OBJECT_NAME":"GONETS-M 24","OBJECT_ID":"2022-139B","EPOCH":"2026-04-27T06:45:10.157184","MEAN_MOTION":12.42889038,"ECCENTRICITY":0.0016819,"INCLINATION":82.5029,"RA_OF_ASC_NODE":19.0222,"ARG_OF_PERICENTER":347.0127,"MEAN_ANOMALY":13.0517,"EPHEMERIS_TYPE":0,"CLASSIFICATION_TYPE":"U","NORAD_CAT_ID":54151,"ELEMENT_SET_NO":999,"REV_AT_EPOCH":15932,"BSTAR":4.9852997e-5,"MEAN_MOTION_DOT":1.7e-7,"MEAN_MOTION_DDOT":0},{"OBJECT_NAME":"GONETS-M 25","OBJECT_ID":"2022-139C","EPOCH":"2026-04-27T06:25:30.334080","MEAN_MOTION":12.42888532,"ECCENTRICITY":0.00206916,"INCLINATION":82.5094,"RA_OF_ASC_NODE":19.6895,"ARG_OF_PERICENTER":344.7492,"MEAN_ANOMALY":15.2961,"EPHEMERIS_TYPE":0,"CLASSIFICATION_TYPE":"U","NORAD_CAT_ID":54152,"ELEMENT_SET_NO":999,"REV_AT_EPOCH":15932,"BSTAR":7.166505e-6,"MEAN_MOTION_DOT":1.1e-7,"MEAN_MOTION_DDOT":0},{"OBJECT_NAME":"SKIF-D","OBJECT_ID":"2022-139D","EPOCH":"2026-04-25T21:27:24.240384","MEAN_MOTION":5.00437823,"ECCENTRICITY":0.00073983,"INCLINATION":89.9562,"RA_OF_ASC_NODE":96.6846,"ARG_OF_PERICENTER":220.6212,"MEAN_ANOMALY":139.363,"EPHEMERIS_TYPE":0,"CLASSIFICATION_TYPE":"U","NORAD_CAT_ID":54153,"ELEMENT_SET_NO":999,"REV_AT_EPOCH":6149,"BSTAR":0,"MEAN_MOTION_DOT":4.1e-7,"MEAN_MOTION_DDOT":0},{"OBJECT_NAME":"MATS","OBJECT_ID":"2022-147A","EPOCH":"2026-04-27T06:13:32.607552","MEAN_MOTION":15.05031548,"ECCENTRICITY":0.00131696,"INCLINATION":97.6837,"RA_OF_ASC_NODE":119.0897,"ARG_OF_PERICENTER":22.3164,"MEAN_ANOMALY":337.8633,"EPHEMERIS_TYPE":0,"CLASSIFICATION_TYPE":"U","NORAD_CAT_ID":54227,"ELEMENT_SET_NO":999,"REV_AT_EPOCH":19010,"BSTAR":0.00030839721,"MEAN_MOTION_DOT":4.325e-5,"MEAN_MOTION_DDOT":0},{"OBJECT_NAME":"JILIN-1 GAOFEN 03D54","OBJECT_ID":"2022-155D","EPOCH":"2026-04-27T10:42:16.379424","MEAN_MOTION":15.78736059,"ECCENTRICITY":0.0003873,"INCLINATION":97.6068,"RA_OF_ASC_NODE":264.7309,"ARG_OF_PERICENTER":184.356,"MEAN_ANOMALY":175.7673,"EPHEMERIS_TYPE":0,"CLASSIFICATION_TYPE":"U","NORAD_CAT_ID":54254,"ELEMENT_SET_NO":999,"REV_AT_EPOCH":19225,"BSTAR":0.00082347,"MEAN_MOTION_DOT":0.0014594,"MEAN_MOTION_DDOT":0},{"OBJECT_NAME":"EOS-6 (OCEANSAT-3)","OBJECT_ID":"2022-158A","EPOCH":"2026-04-27T06:27:44.131392","MEAN_MOTION":14.46980182,"ECCENTRICITY":0.00023165,"INCLINATION":98.3499,"RA_OF_ASC_NODE":216.1475,"ARG_OF_PERICENTER":106.1251,"MEAN_ANOMALY":254.0197,"EPHEMERIS_TYPE":0,"CLASSIFICATION_TYPE":"U","NORAD_CAT_ID":54361,"ELEMENT_SET_NO":999,"REV_AT_EPOCH":18047,"BSTAR":9.8299043e-5,"MEAN_MOTION_DOT":3.14e-6,"MEAN_MOTION_DDOT":0},{"OBJECT_NAME":"DONGPO 09","OBJECT_ID":"2022-167D","EPOCH":"2026-04-27T06:17:24.900000","MEAN_MOTION":15.35201137,"ECCENTRICITY":0.00012402,"INCLINATION":97.6861,"RA_OF_ASC_NODE":286.0536,"ARG_OF_PERICENTER":329.971,"MEAN_ANOMALY":30.1462,"EPHEMERIS_TYPE":0,"CLASSIFICATION_TYPE":"U","NORAD_CAT_ID":54685,"ELEMENT_SET_NO":999,"REV_AT_EPOCH":18763,"BSTAR":0.0004204803,"MEAN_MOTION_DOT":0.00014294,"MEAN_MOTION_DDOT":0},{"OBJECT_NAME":"DONGPO 08","OBJECT_ID":"2022-167E","EPOCH":"2026-04-27T06:51:55.290240","MEAN_MOTION":15.32650289,"ECCENTRICITY":0.00078378,"INCLINATION":97.682,"RA_OF_ASC_NODE":283.4933,"ARG_OF_PERICENTER":357.5268,"MEAN_ANOMALY":2.5933,"EPHEMERIS_TYPE":0,"CLASSIFICATION_TYPE":"U","NORAD_CAT_ID":54686,"ELEMENT_SET_NO":999,"REV_AT_EPOCH":18752,"BSTAR":0.00039510288,"MEAN_MOTION_DOT":0.00012392,"MEAN_MOTION_DDOT":0},{"OBJECT_NAME":"2022-167F","OBJECT_ID":"2022-167F","EPOCH":"2026-04-26T23:22:16.142880","MEAN_MOTION":15.77401037,"ECCENTRICITY":0.00032961,"INCLINATION":97.6189,"RA_OF_ASC_NODE":299.2242,"ARG_OF_PERICENTER":211.084,"MEAN_ANOMALY":149.023,"EPHEMERIS_TYPE":0,"CLASSIFICATION_TYPE":"U","NORAD_CAT_ID":54687,"ELEMENT_SET_NO":999,"REV_AT_EPOCH":18872,"BSTAR":0.00072473029,"MEAN_MOTION_DOT":0.00120655,"MEAN_MOTION_DDOT":0},{"OBJECT_NAME":"DONGPO 10","OBJECT_ID":"2022-167H","EPOCH":"2026-04-27T07:39:07.824384","MEAN_MOTION":15.3341396,"ECCENTRICITY":0.00037479,"INCLINATION":97.6905,"RA_OF_ASC_NODE":285.3594,"ARG_OF_PERICENTER":300.1616,"MEAN_ANOMALY":59.9254,"EPHEMERIS_TYPE":0,"CLASSIFICATION_TYPE":"U","NORAD_CAT_ID":54689,"ELEMENT_SET_NO":999,"REV_AT_EPOCH":18756,"BSTAR":0.00039697783,"MEAN_MOTION_DOT":0.00012746,"MEAN_MOTION_DDOT":0},{"OBJECT_NAME":"JILIN-1 GAOFEN 03D48","OBJECT_ID":"2022-167P","EPOCH":"2026-04-27T06:37:17.044608","MEAN_MOTION":15.34131841,"ECCENTRICITY":0.00050811,"INCLINATION":97.6837,"RA_OF_ASC_NODE":284.6781,"ARG_OF_PERICENTER":302.7496,"MEAN_ANOMALY":57.3256,"EPHEMERIS_TYPE":0,"CLASSIFICATION_TYPE":"U","NORAD_CAT_ID":54695,"ELEMENT_SET_NO":999,"REV_AT_EPOCH":18758,"BSTAR":0.00041399682,"MEAN_MOTION_DOT":0.00013605,"MEAN_MOTION_DDOT":0},{"OBJECT_NAME":"STAR VIBE","OBJECT_ID":"2023-001A","EPOCH":"2026-04-27T06:58:33.652128","MEAN_MOTION":15.41225597,"ECCENTRICITY":0.00041611,"INCLINATION":97.321,"RA_OF_ASC_NODE":181.594,"ARG_OF_PERICENTER":303.892,"MEAN_ANOMALY":56.1931,"EPHEMERIS_TYPE":0,"CLASSIFICATION_TYPE":"U","NORAD_CAT_ID":55009,"ELEMENT_SET_NO":999,"REV_AT_EPOCH":18438,"BSTAR":0.00038816779,"MEAN_MOTION_DOT":0.00016058,"MEAN_MOTION_DDOT":0}]
