OTB-3-GAZELLE           
1 54023U 22127A   26117.22150960  .00000176  00000+0  65980-4 0  9995
2 54023  98.3937 109.7063 0012855 348.1171  11.9714 14.42655504187013
ASO-S                   
1 54029U 22129A   26117.26130910  .00000230  00000+0  67815-4 0  9990
2 54029  98.2764 123.0699 0013065 247.1714 112.8102 14.52037099188034
HJ-2E                   
1 54035U 22132A   26117.26403373  .00008574  00000+0  38117-3 0  9998
2 54035  97.3815 122.5874 0020690 182.3675 177.7466 15.21557571196676
COSMOS 2561             
1 54109U 22137A   26117.19444994  .00015493  00000+0  27354-3 0  9990
2 54109  96.9244 178.1324 0009168 203.2235 156.8604 15.50400522198442
GONETS-M 23             
1 54150U 22139A   26117.30823593  .00000011  00000+0  70010-5 0  9996
2 54150  82.5112  19.9107 0021381 335.6203  24.3864 12.42888485159327
GONETS-M 24             
1 54151U 22139B   26117.28136756  .00000017  00000+0  49853-4 0  9998
2 54151  82.5029  19.0222 0016819 347.0127  13.0517 12.42889038159321
GONETS-M 25             
1 54152U 22139C   26117.26771220  .00000011  00000+0  71665-5 0  9999
2 54152  82.5094  19.6895 0020691 344.7492  15.2961 12.42888532159323
SKIF-D                  
1 54153U 22139D   26115.89403056  .00000041  00000+0  00000+0 0  9998
2 54153  89.9562  96.6846 0007398 220.6212 139.3630  5.00437823 61497
MATS                    
1 54227U 22147A   26117.25940518  .00004325  00000+0  30840-3 0  9998
2 54227  97.6837 119.0897 0013169  22.3164 337.8633 15.05031548190101
JILIN-1 GAOFEN 03D54    
1 54254U 22155D   26117.44602291  .00145940  00000+0  82347-3 0  9999
2 54254  97.6068 264.7309 0003873 184.3560 175.7673 15.78736059192253
EOS-6 (OCEANSAT-3)      
1 54361U 22158A   26117.26926078  .00000314  00000+0  98299-4 0  9992
2 54361  98.3499 216.1475 0002316 106.1251 254.0197 14.46980182180478
DONGPO 09               
1 54685U 22167D   26117.26209375  .00014294  00000+0  42048-3 0  9997
2 54685  97.6861 286.0536 0001240 329.9710  30.1462 15.35201137187634
DONGPO 08               
1 54686U 22167E   26117.28605660  .00012392  00000+0  39510-3 0  9994
2 54686  97.6820 283.4933 0007837 357.5268   2.5933 15.32650289187522
2022-167F               
1 54687U 22167F   26116.97379795  .00120655  00000+0  72473-3 0  9994
2 54687  97.6189 299.2242 0003296 211.0840 149.0230 15.77401037188728
DONGPO 10               
1 54689U 22167H   26117.31884056  .00012746  00000+0  39698-3 0  9999
2 54689  97.6905 285.3594 0003747 300.1616  59.9254 15.33413960187560
JILIN-1 GAOFEN 03D48    
1 54695U 22167P   26117.27589172  .00013605  00000+0  41400-3 0  9991
2 54695  97.6837 284.6781 0005081 302.7496  57.3256 15.34131841187580
STAR VIBE               
1 55009U 23001A   26117.29066727  .00016058  00000+0  38817-3 0  9990
2 55009  97.3210 181.5940 0004161 303.8920  56.1931 15.41225597184388
